{
  "links": {
    "self": "https://api.nasa.gov/neo/rest/v1/neo/2315020?api_key=DEMO_KEY"
  },
  "neo_reference_id": "2315020",
  "name": "315020 (2007 BG49)",
  "nasa_jpl_url": "http://ssd.jpl.nasa.gov/sbdb.cgi?sstr=2315020",
  "absolute_magnitude_h": 18.7,
  "estimated_diameter": {
    "kilometers": {
      "estimated_diameter_min": 0.4836764882,
      "estimated_diameter_max": 1.0815335068
    },
    "meters": {
      "estimated_diameter_min": 483.6764882185,
      "estimated_diameter_max": 1081.533506775
    },
    "miles": {
      "estimated_diameter_min": 0.3005425432,
      "estimated_diameter_max": 0.6720335566
    },
    "feet": {
      "estimated_diameter_min": 1586.8651696069,
      "estimated_diameter_max": 3548.3383903678
    }
  },
  "is_potentially_hazardous_asteroid": false,
  "close_approach_data": [
    {
      "close_approach_date": "1990-05-26",
      "epoch_date_close_approach": 643705200000,
      "relative_velocity": {
        "kilometers_per_second": "9.0514013626",
        "kilometers_per_hour": "32585.0449053534",
        "miles_per_hour": "20247.0797079958"
      },
      "miss_distance": {
        "astronomical": "0.0698240809",
        "lunar": "27.1615657806",
        "kilometers": "10445533",
        "miles": "6490553.5"
      },
      "orbiting_body": "Mars"
    },
    {
      "close_approach_date": "1997-11-29",
      "epoch_date_close_approach": 880790400000,
      "relative_velocity": {
        "kilometers_per_second": "8.0512848001",
        "kilometers_per_hour": "28984.6252803195",
        "miles_per_hour": "18009.9189693185"
      },
      "miss_distance": {
        "astronomical": "0.0306683101",
        "lunar": "11.9299726486",
        "kilometers": "4587914",
        "miles": "2850797.5"
      },
      "orbiting_body": "Mars"
    },
    {
      "close_approach_date": "2005-06-03",
      "epoch_date_close_approach": 1117782000000,
      "relative_velocity": {
        "kilometers_per_second": "7.1648341007",
        "kilometers_per_hour": "25793.4027625679",
        "miles_per_hour": "16027.0173998856"
      },
      "miss_distance": {
        "astronomical": "0.065413108",
        "lunar": "25.4456996918",
        "kilometers": "9785662",
        "miles": "6080528.5"
      },
      "orbiting_body": "Mars"
    },
    {
      "close_approach_date": "2102-06-06",
      "epoch_date_close_approach": 4179020400000,
      "relative_velocity": {
        "kilometers_per_second": "8.0527961359",
        "kilometers_per_hour": "28990.0660892756",
        "miles_per_hour": "18013.2996764168"
      },
      "miss_distance": {
        "astronomical": "0.0915521514",
        "lunar": "35.6137886047",
        "kilometers": "13696007",
        "miles": "8510304"
      },
      "orbiting_body": "Mars"
    }
  ],
  "orbital_data": {
    "orbit_id": "34",
    "orbit_determination_date": "2015-10-28 23:30:40",
    "orbit_uncertainty": "0",
    "minimum_orbit_intersection": ".280987",
    "jupiter_tisserand_invariant": "3.939",
    "epoch_osculation": "2457200.5",
    "eccentricity": ".3207444230148393",
    "semi_major_axis": "1.843967816093792",
    "inclination": "7.895048079701093",
    "ascending_node_longitude": "332.8617913699161",
    "orbital_period": "914.5941770554965",
    "perihelion_distance": "1.252525422862856",
    "perihelion_argument": "281.5189933211843",
    "aphelion_distance": "2.435410209324729",
    "perihelion_time": "2457108.260300852241",
    "mean_anomaly": "36.30713219725464",
    "mean_motion": ".3936172009743242",
    "equinox": "J2000"
  }
}